{"fetched_at":"2026-05-03T20:44:17Z","count":16876,"tles":[{"name":"IUE","line1":"1 10637U 78012A   26104.63032301  .00000069  00000+0  00000+0 0  9999","line2":"2 10637  36.8949 289.3880 1458736 266.3664  77.6605  1.00071320128447","category":"Other"},{"name":"FENGYUN 1C DEB","line1":"1 41009U 99025EXP 23175.95512930  .00005749  00000+0  24414-2 0  9992","line2":"2 41009  99.1807  81.3579 0019967 202.7180 157.3116 14.25603880460433","category":"Weather"},{"name":"STARLINK-4701","line1":"1 53727U 22107AD  26122.94001148  .00000277  00000+0  35507-4 0  9995","line2":"2 53727  53.2170  10.5744 0001471  84.5413 275.5747 15.08832252202741","category":"Starlink"},{"name":"STARLINK-35459","line1":"1 65856U 25223C   26123.03698284  .00053409  00000+0  18020-2 0  9991","line2":"2 65856  53.1604  41.9377 0000422 325.1366  34.9607 15.30208449 32523","category":"Starlink"},{"name":"COSMOS 2251 DEB","line1":"1 34914U 93036ADK 23179.19177445  .00008172  00000+0  10384-2 0  9997","line2":"2 34914  73.9968 111.8825 0140353 248.5319 110.0839 14.75014186757625","category":"Other"},{"name":"STARLINK-3232","line1":"1 50809U 22001G   26123.12723141  .00000361  00000+0  40780-4 0  9994","line2":"2 50809  53.2182 274.7418 0001272  88.4963 271.6175 15.08835342238762","category":"Starlink"},{"name":"QAEM 100 DEB","line1":"1 58819U 24015C   24028.55774234  .00054227  00000+0  15623-1 0  9993","line2":"2 58819  64.4782  88.5570 0010930 314.2129  45.8058 14.44281846  1162","category":"Other"},{"name":"STARLINK-1076","line1":"1 44959U 20001AX  23361.28814428  .00007414  00000+0  51614-3 0  9991","line2":"2 44959  53.0549 313.2287 0001259  84.0680 276.0452 15.06394755219315","category":"Starlink"},{"name":"STARLINK-5755","line1":"1 55600U 23020AH  26122.97973027  .00004267  00000+0  16450-3 0  9997","line2":"2 55600  43.0051  47.5115 0001245 263.2929  96.7781 15.27579647177342","category":"Starlink"},{"name":"FENGYUN 1C DEB","line1":"1 30876U 99025AXN 26104.88870358  .00000419  00000+0  31225-3 0  9998","line2":"2 30876  98.8250  90.3846 0066156 296.1968 124.9117 13.99282132974323","category":"Weather"},{"name":"BREEZE-M DEB [TANK]","line1":"1 47243U 20097B   26104.17514528  .00001080  00000+0  11382-2 0  9999","line2":"2 47243  58.3041 121.4552 7306373 106.4086 339.0381  2.20490407 42794","category":"Other"},{"name":"AAC-HSI-SAT2","line1":"1 56995U 23084BX  26123.19077353  .00003489  00000+0  16481-3 0  9996","line2":"2 56995  97.8196 271.7785 0011961 347.8561  12.2383 15.20081637159507","category":"Other"},{"name":"FENGYUN 1C DEB","line1":"1 38147U 99025EQU 26100.29772487  .00001274  00000+0  56864-3 0  9998","line2":"2 38147  98.5533 116.3056 0049173 315.6155  44.1088 14.23813790620742","category":"Weather"},{"name":"STARLINK-4201","line1":"1 52856U 22062AC  26122.74868629  .00000170  00000+0  28789-4 0  9996","line2":"2 52856  53.2160 141.4856 0001287  83.5313 276.5825 15.08836785214086","category":"Starlink"},{"name":"2024-205N","line1":"1 61906U 24205N   26123.17656597  .00023966  00000+0  67996-3 0  9990","line2":"2 61906  97.4168 203.5061 0009415 186.2659 173.8469 15.36176477 81961","category":"Other"},{"name":"ELECTRON KICK STAGE R/B","line1":"1 67616U 26019C   26060.34601013  .00666391  15445-3  20771-2 0  9998","line2":"2 67616  97.3996 186.8225 0129816 151.1495 209.7033 15.79000025  4733","category":"Other"},{"name":"STARLINK-34620","line1":"1 64803U 25150P   26122.90468611  .00000270  00000+0  30378-4 0  9995","line2":"2 64803  70.0016 357.9206 0002775 265.2337  94.8505 14.98331791 44632","category":"Starlink"},{"name":"FENGYUN 1C DEB","line1":"1 31837U 99025CJB 26104.48014675  .00002934  00000+0  32708-3 0  9995","line2":"2 31837  98.0832 186.6991 0087737 339.0567  20.7061 14.85107899  1727","category":"Weather"},{"name":"ONEWEB-0176","line1":"1 48210U 21031A   26123.19336888 -.00000145  00000+0 -42561-3 0  9994","line2":"2 48210  87.8928 298.6777 0001704  89.6585 270.4740 13.14503685242400","category":"Other"},{"name":"H-2A DEB","line1":"1 57805U 23137F   23279.08723227  .00028179  00000+0  22550-2 0  9997","line2":"2 57805  30.9971 192.2876 0011296 204.3633 155.6469 14.99035122  4298","category":"Other"},{"name":"STARLINK-11578 [DTC]","line1":"1 63014U 25032K   26123.20154125  .00234129  00000+0  17746-2 0  9997","line2":"2 63014  43.0014 227.0667 0001753 269.3245  90.7422 15.70874679 70730","category":"Starlink"},{"name":"STARLINK-37221","line1":"1 68668U 26077G   26123.16670139 -.01876734  00000+0 -27218-1 0  9991","line2":"2 68668  97.2838 354.7114 0001599 113.8122 245.8835 15.59058206  4482","category":"Starlink"},{"name":"TITAN 3C TRANSTAGE R/B","line1":"1 12371U 81025C   26103.94436301 -.00000262  00000+0  00000+0 0  9991","line2":"2 12371   6.8037 299.2337 0057650 325.6775  33.7666  1.01336962 26395","category":"Other"},{"name":"OUFTI-1","line1":"1 41458U 16025C   24071.42658060  .09000698  30030-5  11609-2 0  9993","line2":"2 41458  98.1164 316.8163 0011208 221.8987 138.1451 16.35646945434676","category":"Other"},{"name":"STARLINK-4749","line1":"1 53818U 22114A   23362.20195988 -.00001806  00000+0 -76096-4 0  9991","line2":"2 53818  53.2166 289.9680 0001443  82.6062 277.5098 15.16397901 71387","category":"Starlink"},{"name":"STARLINK-33902","line1":"1 65920U 25225L   26122.83118469  .00032253  00000+0  10962-2 0  9995","line2":"2 65920  53.1593 274.4651 0001041  81.3087 278.8031 15.30205817 32693","category":"Starlink"},{"name":"COSMOS 2251 DEB","line1":"1 35065U 93036AHU 26101.30863346  .00000888  00000+0  25541-3 0  9996","line2":"2 35065  74.0205 331.0509 0018706  70.8225 289.4955 14.46154970700792","category":"Other"},{"name":"FLOCK 4X-18","line1":"1 51007U 22002Z   23361.78151497  .00026703  00000+0  75623-3 0  9999","line2":"2 51007  97.4123  70.6256 0007774 255.4782 104.5600 15.36225548108483","category":"Other"},{"name":"STARLINK-31209","line1":"1 58883U 24020H   26123.10817856 -.00000317  00000+0  14208-5 0  9991","line2":"2 58883  53.1603  69.5965 0001606  97.4129 262.7055 15.30189108126403","category":"Starlink"},{"name":"ARIANE 5 R/B","line1":"1 28379U 04027B   26104.74054970 -.00000323  00000+0 -24389-2 0  9998","line2":"2 28379   7.2464 316.5128 7287363  59.4802  67.4480  2.07978984165212","category":"Other"},{"name":"STARLINK-1193","line1":"1 45100U 20006BJ  26122.97255052  .00067703  00000+0  68711-3 0  9994","line2":"2 45100  53.0483 325.9577 0004749 173.7368 186.3707 15.64600025345724","category":"Starlink"},{"name":"STARLINK-5423","line1":"1 55670U 23021AU  26123.14894825 -.00001057  00000+0 -80807-4 0  9997","line2":"2 55670  70.0008  27.0802 0002443 261.6068  98.4815 14.98330568177446","category":"Starlink"},{"name":"STARLINK-35902","line1":"1 66626U 25271K   26123.03652991  .00021366  00000+0  73086-3 0  9996","line2":"2 66626  53.1574 247.7634 0001207  48.2500 311.8604 15.30224576 25886","category":"Starlink"},{"name":"FENGYUN 1C DEB","line1":"1 30964U 99025BBE 26103.85467786  .00001088  00000+0  69498-3 0  9995","line2":"2 30964  98.6720  70.0436 0136240 255.5264 132.5158 14.01074483971050","category":"Weather"},{"name":"STARLINK-2070","line1":"1 47360U 21005M   23362.46395859  .00000112  00000+0  26422-4 0  9996","line2":"2 47360  53.0531  27.9463 0001428 103.7745 256.3403 15.06391857162627","category":"Starlink"},{"name":"STARLINK-5827","line1":"1 57066U 23088U   26123.15430590  .00002468  00000+0  10171-3 0  9998","line2":"2 57066  43.0026 162.9266 0001416 266.7331  93.3359 15.26726073157681","category":"Starlink"},{"name":"STARLINK-33892","line1":"1 63783U 25091J   26123.03533229  .00011359  00000+0  42171-3 0  9991","line2":"2 63783  42.9943 105.6134 0001746 274.5150  85.5502 15.27576291 57217","category":"Starlink"},{"name":"UNKNOWN","line1":"1 87456U          26088.48104688  .00007348  00000+0  10378-2 0  9995","line2":"2 87456  65.7666 167.1058 0511443 310.3930  45.3556 14.15395518626591","category":"Other"},{"name":"FENGYUN 1C DEB","line1":"1 38493U 99025ESC 26096.60255523  .00000747  00000+0  55228-3 0  9995","line2":"2 38493  99.0968  53.5877 0426096 307.2603  49.0386 13.62475179580629","category":"Weather"},{"name":"STARLINK-4301","line1":"1 52997U 22076M   23362.46605684  .00010266  00000+0  42028-3 0  9997","line2":"2 52997  53.2467  70.1205 0003490  81.9727 278.1668 15.24895916 82576","category":"Starlink"},{"name":"EKRAN 2 DEB","line1":"1 59986U 77092M   26104.88236696 -.00000030  00000+0  00000+0 0  9995","line2":"2 59986   3.9371 271.8457 0042613 114.6836 187.1438  1.00941668 45883","category":"Other"},{"name":"STARLINK-32613","line1":"1 61970U 24210M   26123.00927647  .00020479  00000+0  75172-3 0  9997","line2":"2 61970  43.0001 233.3812 0001480 267.9184  92.1498 15.27577238 83220","category":"Starlink"},{"name":"COSMOS 2606","line1":"1 67680U 26023G   26123.15066056  .00011660  00000+0  47331-3 0  9997","line2":"2 67680  96.6176 192.2256 0019636 284.5929  75.3133 15.24543749 13139","category":"Other"},{"name":"O3B MPOWER F10","line1":"1 64867U 25153B   26122.76665554 -.00000024  00000+0  00000+0 0  9999","line2":"2 64867   0.0543  10.0025 0002590 262.8691  87.0998  5.00114943 19764","category":"Other"},{"name":"FENGYUN 1C DEB","line1":"1 31972U 99025CNZ 26104.38647399 -.00000017  00000+0  16542-4 0  9999","line2":"2 31972  99.1906 153.3008 0077281  50.8436 326.4828 14.07588097966866","category":"Weather"},{"name":"STARLINK-2555","line1":"1 48291U 21036R   26122.90329378 -.00004291  00000+0 -12662-3 0  9997","line2":"2 48291  53.1599 185.7658 0001195  96.5219 263.5918 15.31688124276677","category":"Starlink"},{"name":"STARLINK-30445","line1":"1 57873U 23144K   26123.00761014 -.00000484  00000+0 -80490-5 0  9990","line2":"2 57873  43.0015 338.5310 0001776 260.6059  99.4592 15.27582376145900","category":"Starlink"},{"name":"STARLINK-32821","line1":"1 63078U 25037B   26122.99052176  .00001227  00000+0  11065-3 0  9990","line2":"2 63078  70.0023 217.6258 0003147 269.6359  90.4439 14.98324037 66714","category":"Starlink"}]}